[
    {
        "Altitude(m)": 607895.8022811668,
        "Argument of Periapsis(deg)": 0.0,
        "Eccentricity": 0.0,
        "Inclination(deg)": 60.0,
        "Latitude(deg)": 40.99829868173664,
        "Longitude(deg)": -19.91143229295301,
        "Mean Anomaly(deg)": -229.09089999999998,
        "RAAN(deg)": 290.0,
        "Satellite Name": "Test1 1284",
        "Satellite Number": 1284,
        "Semi-Major Axis(m)": 6980739.136638005,
        "Time(s)": 0
    },
    {
        "Altitude(m)": 607795.1154502312,
        "Argument of Periapsis(deg)": 0.00010418945913296404,
        "Eccentricity": 0.0,
        "Inclination(deg)": 60.0,
        "Latitude(deg)": 40.53062372011582,
        "Longitude(deg)": -19.41483748127838,
        "Mean Anomaly(deg)": -228.47079385453813,
        "RAAN(deg)": 289.99957995086027,
        "Satellite Name": "Test1 1284",
        "Satellite Number": 1284,
        "Semi-Major Axis(m)": 6980739.136638005,
        "Time(s)": 10
    }
]